[{"OBJECT_NAME":"STARLINK-33890","OBJECT_ID":"2025-189K","EPOCH":"2026-02-09T01:15:08.002944","MEAN_MOTION":15.30156934,"ECCENTRICITY":0.00010259,"INCLINATION":53.1595,"RA_OF_ASC_NODE":339.6562,"ARG_OF_PERICENTER":37.555,"MEAN_ANOMALY":322.5522,"EPHEMERIS_TYPE":0,"CLASSIFICATION_TYPE":"U","NORAD_CAT_ID":65332,"ELEMENT_SET_NO":999,"REV_AT_EPOCH":2552,"BSTAR":-0.0012519584,"MEAN_MOTION_DOT":-0.00037205,"MEAN_MOTION_DDOT":0},{"OBJECT_NAME":"STARLINK-34602","OBJECT_ID":"2025-189L","EPOCH":"2026-02-09T05:43:38.511552","MEAN_MOTION":15.30207168,"ECCENTRICITY":0.00010251,"INCLINATION":53.1612,"RA_OF_ASC_NODE":338.6901,"ARG_OF_PERICENTER":89.2365,"MEAN_ANOMALY":270.8753,"EPHEMERIS_TYPE":0,"CLASSIFICATION_TYPE":"U","NORAD_CAT_ID":65333,"ELEMENT_SET_NO":999,"REV_AT_EPOCH":2675,"BSTAR":0.0015171701,"MEAN_MOTION_DOT":0.00044856,"MEAN_MOTION_DDOT":0},{"OBJECT_NAME":"STARLINK-34878","OBJECT_ID":"2025-189M","EPOCH":"2026-02-09T02:41:37.121280","MEAN_MOTION":15.30188098,"ECCENTRICITY":0.00011456,"INCLINATION":53.1604,"RA_OF_ASC_NODE":339.3354,"ARG_OF_PERICENTER":89.0646,"MEAN_ANOMALY":271.0486,"EPHEMERIS_TYPE":0,"CLASSIFICATION_TYPE":"U","NORAD_CAT_ID":65334,"ELEMENT_SET_NO":999,"REV_AT_EPOCH":2673,"BSTAR":0.00087866861,"MEAN_MOTION_DOT":0.00025745,"MEAN_MOTION_DDOT":0},{"OBJECT_NAME":"STARLINK-34874","OBJECT_ID":"2025-189N","EPOCH":"2026-02-09T00:34:17.540832","MEAN_MOTION":15.30213168,"ECCENTRICITY":0.00017638,"INCLINATION":53.1622,"RA_OF_ASC_NODE":340.1831,"ARG_OF_PERICENTER":111.2899,"MEAN_ANOMALY":248.8291,"EPHEMERIS_TYPE":0,"CLASSIFICATION_TYPE":"U","NORAD_CAT_ID":65335,"ELEMENT_SET_NO":999,"REV_AT_EPOCH":2671,"BSTAR":0.00084042579,"MEAN_MOTION_DOT":0.00024625,"MEAN_MOTION_DDOT":0},{"OBJECT_NAME":"STARLINK-34835","OBJECT_ID":"2025-189P","EPOCH":"2026-02-09T05:21:01.099296","MEAN_MOTION":15.30192719,"ECCENTRICITY":0.00015934,"INCLINATION":53.1624,"RA_OF_ASC_NODE":339.3058,"ARG_OF_PERICENTER":63.5885,"MEAN_ANOMALY":296.5279,"EPHEMERIS_TYPE":0,"CLASSIFICATION_TYPE":"U","NORAD_CAT_ID":65336,"ELEMENT_SET_NO":999,"REV_AT_EPOCH":2674,"BSTAR":0.00095495971,"MEAN_MOTION_DOT":0.00028024,"MEAN_MOTION_DDOT":0},{"OBJECT_NAME":"STARLINK-34854","OBJECT_ID":"2025-189Q","EPOCH":"2026-02-09T02:44:39.906528","MEAN_MOTION":15.30246176,"ECCENTRICITY":9.973e-5,"INCLINATION":53.1604,"RA_OF_ASC_NODE":339.3451,"ARG_OF_PERICENTER":124.9263,"MEAN_ANOMALY":235.1832,"EPHEMERIS_TYPE":0,"CLASSIFICATION_TYPE":"U","NORAD_CAT_ID":65337,"ELEMENT_SET_NO":999,"REV_AT_EPOCH":2667,"BSTAR":0.0012449155,"MEAN_MOTION_DOT":0.00036747,"MEAN_MOTION_DDOT":0},{"OBJECT_NAME":"STARLINK-34751","OBJECT_ID":"2025-189R","EPOCH":"2026-02-09T06:01:53.014656","MEAN_MOTION":15.30194155,"ECCENTRICITY":0.00013083,"INCLINATION":53.1591,"RA_OF_ASC_NODE":338.7751,"ARG_OF_PERICENTER":76.8819,"MEAN_ANOMALY":283.2327,"EPHEMERIS_TYPE":0,"CLASSIFICATION_TYPE":"U","NORAD_CAT_ID":65338,"ELEMENT_SET_NO":999,"REV_AT_EPOCH":2675,"BSTAR":0.001545906,"MEAN_MOTION_DOT":0.000457,"MEAN_MOTION_DDOT":0},{"OBJECT_NAME":"STARLINK-34777","OBJECT_ID":"2025-189S","EPOCH":"2026-02-09T04:49:06.165120","MEAN_MOTION":15.30196667,"ECCENTRICITY":0.00011973,"INCLINATION":53.1604,"RA_OF_ASC_NODE":339.1674,"ARG_OF_PERICENTER":58.2037,"MEAN_ANOMALY":301.9081,"EPHEMERIS_TYPE":0,"CLASSIFICATION_TYPE":"U","NORAD_CAT_ID":65339,"ELEMENT_SET_NO":999,"REV_AT_EPOCH":2675,"BSTAR":0.0010363313,"MEAN_MOTION_DOT":0.00030457,"MEAN_MOTION_DDOT":0},{"OBJECT_NAME":"STARLINK-35020","OBJECT_ID":"2025-189T","EPOCH":"2026-02-09T05:36:02.846592","MEAN_MOTION":15.30198004,"ECCENTRICITY":0.00012967,"INCLINATION":53.1613,"RA_OF_ASC_NODE":338.6585,"ARG_OF_PERICENTER":95.8486,"MEAN_ANOMALY":264.2663,"EPHEMERIS_TYPE":0,"CLASSIFICATION_TYPE":"U","NORAD_CAT_ID":65340,"ELEMENT_SET_NO":999,"REV_AT_EPOCH":2670,"BSTAR":0.001493792,"MEAN_MOTION_DOT":0.00044143,"MEAN_MOTION_DDOT":0},{"OBJECT_NAME":"STARLINK-35016","OBJECT_ID":"2025-189U","EPOCH":"2026-02-09T06:20:06.563904","MEAN_MOTION":15.30227994,"ECCENTRICITY":0.00012287,"INCLINATION":53.1598,"RA_OF_ASC_NODE":338.847,"ARG_OF_PERICENTER":81.9785,"MEAN_ANOMALY":278.1356,"EPHEMERIS_TYPE":0,"CLASSIFICATION_TYPE":"U","NORAD_CAT_ID":65341,"ELEMENT_SET_NO":999,"REV_AT_EPOCH":2670,"BSTAR":0.0018327783,"MEAN_MOTION_DOT":0.00054368,"MEAN_MOTION_DDOT":0},{"OBJECT_NAME":"STARLINK-35092","OBJECT_ID":"2025-189V","EPOCH":"2026-02-09T02:34:01.151328","MEAN_MOTION":15.30197029,"ECCENTRICITY":9.035e-5,"INCLINATION":53.1607,"RA_OF_ASC_NODE":339.2954,"ARG_OF_PERICENTER":116.2745,"MEAN_ANOMALY":243.8349,"EPHEMERIS_TYPE":0,"CLASSIFICATION_TYPE":"U","NORAD_CAT_ID":65342,"ELEMENT_SET_NO":999,"REV_AT_EPOCH":2664,"BSTAR":0.001038966,"MEAN_MOTION_DOT":0.00030536,"MEAN_MOTION_DDOT":0},{"OBJECT_NAME":"STARLINK-34838","OBJECT_ID":"2025-189W","EPOCH":"2026-02-09T02:14:25.343232","MEAN_MOTION":15.30209723,"ECCENTRICITY":7.334e-5,"INCLINATION":53.1625,"RA_OF_ASC_NODE":339.9102,"ARG_OF_PERICENTER":100.2299,"MEAN_ANOMALY":259.8785,"EPHEMERIS_TYPE":0,"CLASSIFICATION_TYPE":"U","NORAD_CAT_ID":65343,"ELEMENT_SET_NO":999,"REV_AT_EPOCH":2673,"BSTAR":0.0009536877,"MEAN_MOTION_DOT":0.00028001,"MEAN_MOTION_DDOT":0},{"OBJECT_NAME":"STARLINK-35088","OBJECT_ID":"2025-189X","EPOCH":"2026-02-09T06:45:57.157920","MEAN_MOTION":15.30204693,"ECCENTRICITY":0.00015118,"INCLINATION":53.161,"RA_OF_ASC_NODE":338.962,"ARG_OF_PERICENTER":83.5936,"MEAN_ANOMALY":276.5237,"EPHEMERIS_TYPE":0,"CLASSIFICATION_TYPE":"U","NORAD_CAT_ID":65344,"ELEMENT_SET_NO":999,"REV_AT_EPOCH":2676,"BSTAR":0.0008284463,"MEAN_MOTION_DOT":0.00024261,"MEAN_MOTION_DDOT":0},{"OBJECT_NAME":"STARLINK-34831","OBJECT_ID":"2025-189Y","EPOCH":"2026-02-09T02:59:50.985888","MEAN_MOTION":15.30188518,"ECCENTRICITY":0.00011819,"INCLINATION":53.1589,"RA_OF_ASC_NODE":339.4047,"ARG_OF_PERICENTER":112.566,"MEAN_ANOMALY":247.5466,"EPHEMERIS_TYPE":0,"CLASSIFICATION_TYPE":"U","NORAD_CAT_ID":65345,"ELEMENT_SET_NO":999,"REV_AT_EPOCH":2674,"BSTAR":0.00067537208,"MEAN_MOTION_DOT":0.00019689,"MEAN_MOTION_DDOT":0},{"OBJECT_NAME":"STARLINK-34873","OBJECT_ID":"2025-189Z","EPOCH":"2026-02-09T05:28:27.106464","MEAN_MOTION":15.30196169,"ECCENTRICITY":0.00013874,"INCLINATION":53.1621,"RA_OF_ASC_NODE":338.6278,"ARG_OF_PERICENTER":74.7378,"MEAN_ANOMALY":285.3776,"EPHEMERIS_TYPE":0,"CLASSIFICATION_TYPE":"U","NORAD_CAT_ID":65346,"ELEMENT_SET_NO":999,"REV_AT_EPOCH":2676,"BSTAR":0.0015085724,"MEAN_MOTION_DOT":0.00044583,"MEAN_MOTION_DDOT":0},{"OBJECT_NAME":"STARLINK-34881","OBJECT_ID":"2025-189AA","EPOCH":"2026-02-09T01:36:26.102592","MEAN_MOTION":15.30189977,"ECCENTRICITY":0.00013382,"INCLINATION":53.1593,"RA_OF_ASC_NODE":339.7583,"ARG_OF_PERICENTER":110.5475,"MEAN_ANOMALY":249.567,"EPHEMERIS_TYPE":0,"CLASSIFICATION_TYPE":"U","NORAD_CAT_ID":65347,"ELEMENT_SET_NO":999,"REV_AT_EPOCH":2673,"BSTAR":0.00068392412,"MEAN_MOTION_DOT":0.00019945,"MEAN_MOTION_DDOT":0}]
