STARLINK-33890          
1 65332U 25189K   26040.05217596 -.00037205  00000+0 -12520-2 0  9991
2 65332  53.1595 339.6562 0001025  37.5550 322.5522 15.30156934 25528
STARLINK-34602          
1 65333U 25189L   26040.23864018  .00044856  00000+0  15172-2 0  9993
2 65333  53.1612 338.6901 0001025  89.2365 270.8753 15.30207168 26756
STARLINK-34878          
1 65334U 25189M   26040.11223520  .00025745  00000+0  87867-3 0  9995
2 65334  53.1604 339.3354 0001145  89.0646 271.0486 15.30188098 26735
STARLINK-34874          
1 65335U 25189N   26040.02381413  .00024625  00000+0  84043-3 0  9991
2 65335  53.1622 340.1831 0001763 111.2899 248.8291 15.30213168 26711
STARLINK-34835          
1 65336U 25189P   26040.22292939  .00028024  00000+0  95496-3 0  9999
2 65336  53.1624 339.3058 0001593  63.5885 296.5279 15.30192719 26747
STARLINK-34854          
1 65337U 25189Q   26040.11435077  .00036747  00000+0  12449-2 0  9997
2 65337  53.1604 339.3451 0000997 124.9263 235.1832 15.30246176 26675
STARLINK-34751          
1 65338U 25189R   26040.25130804  .00045700  00000+0  15459-2 0  9996
2 65338  53.1591 338.7751 0001308  76.8819 283.2327 15.30194155 26757
STARLINK-34777          
1 65339U 25189S   26040.20076580  .00030457  00000+0  10363-2 0  9994
2 65339  53.1604 339.1674 0001197  58.2037 301.9081 15.30196667 26759
STARLINK-35020          
1 65340U 25189T   26040.23336628  .00044143  00000+0  14938-2 0  9990
2 65340  53.1613 338.6585 0001296  95.8486 264.2663 15.30198004 26700
STARLINK-35016          
1 65341U 25189U   26040.26396486  .00054368  00000+0  18328-2 0  9999
2 65341  53.1598 338.8470 0001228  81.9785 278.1356 15.30227994 26705
STARLINK-35092          
1 65342U 25189V   26040.10695777  .00030536  00000+0  10390-2 0  9990
2 65342  53.1607 339.2954 0000903 116.2745 243.8349 15.30197029 26645
STARLINK-34838          
1 65343U 25189W   26040.09334888  .00028001  00000+0  95369-3 0  9996
2 65343  53.1625 339.9102 0000733 100.2299 259.8785 15.30209723 26732
STARLINK-35088          
1 65344U 25189X   26040.28191155  .00024261  00000+0  82845-3 0  9995
2 65344  53.1610 338.9620 0001511  83.5936 276.5237 15.30204693 26769
STARLINK-34831          
1 65345U 25189Y   26040.12489567  .00019689  00000+0  67537-3 0  9995
2 65345  53.1589 339.4047 0001181 112.5660 247.5466 15.30188518 26741
STARLINK-34873          
1 65346U 25189Z   26040.22809151  .00044583  00000+0  15086-2 0  9994
2 65346  53.1621 338.6278 0001387  74.7378 285.3776 15.30196169 26766
STARLINK-34881          
1 65347U 25189AA  26040.06696878  .00019945  00000+0  68392-3 0  9990
2 65347  53.1593 339.7583 0001338 110.5475 249.5670 15.30189977 26730
